{
  "type": "FeatureCollection",
  "features": [
    {
      "type": "Feature",
      "properties": {
        "norad_id": 35716,
        "name": "COSMOS 2251 DEB",
        "group": "cosmos-2251-debris",
        "lat": -13.54511277232815,
        "lon": -3.1158195042256254,
        "alt_km": 760.1063462474467,
        "timestamp": "2025-12-23T20:42:37.472595+00:00",
        "meta_object_name": "COSMOS 2251 DEB",
        "meta_object_id": "1993-036AQM",
        "meta_epoch": "2025-12-23T05:49:55.043616",
        "meta_mean_motion": 14.60096888,
        "meta_eccentricity": 0.00892359,
        "meta_inclination": 73.9921,
        "meta_ra_of_asc_node": 174.1043,
        "meta_arg_of_pericenter": 12.4356,
        "meta_mean_anomaly": 164.342,
        "meta_ephemeris_type": 0,
        "meta_classification_type": "U",
        "meta_norad_cat_id": 35716,
        "meta_element_set_no": 999,
        "meta_rev_at_epoch": 87780,
        "meta_bstar": 8.3064383e-05,
        "meta_mean_motion_dot": 3.89e-06,
        "meta_mean_motion_ddot": 0,
        "tle_line1": "1 35716U 93036AQM 25357.24299819  .00000389  00000+0  83064-4 0  9993",
        "tle_line2": "2 35716  73.9921 174.1043 0089235  12.4356 164.3420 14.60096888877803"
      },
      "geometry": {
        "type": "Point",
        "coordinates": [
          -3.1158195042256254,
          -13.54511277232815
        ]
      }
    },
    {
      "type": "Feature",
      "properties": {
        "norad_id": 35717,
        "name": "COSMOS 2251 DEB",
        "group": "cosmos-2251-debris",
        "lat": -1.0237838037866922,
        "lon": 17.43746695912906,
        "alt_km": 799.5153916324562,
        "timestamp": "2025-12-23T20:42:37.472605+00:00",
        "meta_object_name": "COSMOS 2251 DEB",
        "meta_object_id": "1993-036AQN",
        "meta_epoch": "2025-12-22T07:09:37.342368",
        "meta_mean_motion": 14.38552439,
        "meta_eccentricity": 0.00775013,
        "meta_inclination": 74.1587,
        "meta_ra_of_asc_node": 200.0085,
        "meta_arg_of_pericenter": 56.63,
        "meta_mean_anomaly": 304.224,
        "meta_ephemeris_type": 0,
        "meta_classification_type": "U",
        "meta_norad_cat_id": 35717,
        "meta_element_set_no": 999,
        "meta_rev_at_epoch": 74237,
        "meta_bstar": 0.0010958575,
        "meta_mean_motion_dot": 3.447e-05,
        "meta_mean_motion_ddot": 0,
        "tle_line1": "1 35717U 93036AQN 25356.29834887  .00003447  00000+0  10959-2 0  9997",
        "tle_line2": "2 35717  74.1587 200.0085 0077501  56.6300 304.2240 14.38552439742374"
      },
      "geometry": {
        "type": "Point",
        "coordinates": [
          17.43746695912906,
          -1.0237838037866922
        ]
      }
    },
    {
      "type": "Feature",
      "properties": {
        "norad_id": 35718,
        "name": "COSMOS 2251 DEB",
        "group": "cosmos-2251-debris",
        "lat": 50.045288421694906,
        "lon": 128.4286777379449,
        "alt_km": 661.4090243545761,
        "timestamp": "2025-12-23T20:42:37.472615+00:00",
        "meta_object_name": "COSMOS 2251 DEB",
        "meta_object_id": "1993-036AQP",
        "meta_epoch": "2025-12-23T00:51:17.245728",
        "meta_mean_motion": 14.68830838,
        "meta_eccentricity": 0.00098118,
        "meta_inclination": 74.0322,
        "meta_ra_of_asc_node": 110.044,
        "meta_arg_of_pericenter": 157.9795,
        "meta_mean_anomaly": 202.1799,
        "meta_ephemeris_type": 0,
        "meta_classification_type": "U",
        "meta_norad_cat_id": 35718,
        "meta_element_set_no": 999,
        "meta_rev_at_epoch": 65991,
        "meta_bstar": 0.0016838764,
        "meta_mean_motion_dot": 9.825e-05,
        "meta_mean_motion_ddot": 0,
        "tle_line1": "1 35718U 93036AQP 25357.03561627  .00009825  00000+0  16839-2 0  9999",
        "tle_line2": "2 35718  74.0322 110.0440 0009811 157.9795 202.1799 14.68830838659915"
      },
      "geometry": {
        "type": "Point",
        "coordinates": [
          128.4286777379449,
          50.045288421694906
        ]
      }
    },
    {
      "type": "Feature",
      "properties": {
        "norad_id": 35721,
        "name": "COSMOS 2251 DEB",
        "group": "cosmos-2251-debris",
        "lat": 38.002262553125036,
        "lon": -35.735677068116,
        "alt_km": 872.5896807893796,
        "timestamp": "2025-12-23T20:42:37.472625+00:00",
        "meta_object_name": "COSMOS 2251 DEB",
        "meta_object_id": "1993-036AQS",
        "meta_epoch": "2025-12-09T19:36:39.465216",
        "meta_mean_motion": 14.34317214,
        "meta_eccentricity": 0.01465875,
        "meta_inclination": 73.9489,
        "meta_ra_of_asc_node": 183.1196,
        "meta_arg_of_pericenter": 330.1589,
        "meta_mean_anomaly": 29.126,
        "meta_ephemeris_type": 0,
        "meta_classification_type": "U",
        "meta_norad_cat_id": 35721,
        "meta_element_set_no": 999,
        "meta_rev_at_epoch": 57747,
        "meta_bstar": 0.0018396061,
        "meta_mean_motion_dot": 5.808e-05,
        "meta_mean_motion_ddot": 0,
        "tle_line1": "1 35721U 93036AQS 25343.81712344  .00005808  00000+0  18396-2 0  9995",
        "tle_line2": "2 35721  73.9489 183.1196 0146587 330.1589  29.1260 14.34317214577479"
      },
      "geometry": {
        "type": "Point",
        "coordinates": [
          -35.735677068116,
          38.002262553125036
        ]
      }
    },
    {
      "type": "Feature",
      "properties": {
        "norad_id": 35724,
        "name": "COSMOS 2251 DEB",
        "group": "cosmos-2251-debris",
        "lat": -43.954835597031526,
        "lon": -94.51308371322477,
        "alt_km": 724.6988383222651,
        "timestamp": "2025-12-23T20:42:37.472635+00:00",
        "meta_object_name": "COSMOS 2251 DEB",
        "meta_object_id": "1993-036AQV",
        "meta_epoch": "2025-12-22T02:06:46.007136",
        "meta_mean_motion": 14.58219865,
        "meta_eccentricity": 0.0058953,
        "meta_inclination": 74.033,
        "meta_ra_of_asc_node": 284.8882,
        "meta_arg_of_pericenter": 75.7693,
        "meta_mean_anomaly": 285.001,
        "meta_ephemeris_type": 0,
        "meta_classification_type": "U",
        "meta_norad_cat_id": 35724,
        "meta_element_set_no": 999,
        "meta_rev_at_epoch": 87665,
        "meta_bstar": 0.00023860841,
        "meta_mean_motion_dot": 1.098e-05,
        "meta_mean_motion_ddot": 0,
        "tle_line1": "1 35724U 93036AQV 25356.08803249  .00001098  00000+0  23861-3 0  9997",
        "tle_line2": "2 35724  74.0330 284.8882 0058953  75.7693 285.0010 14.58219865876654"
      },
      "geometry": {
        "type": "Point",
        "coordinates": [
          -94.51308371322477,
          -43.954835597031526
        ]
      }
    },
    {
      "type": "Feature",
      "properties": {
        "norad_id": 35759,
        "name": "COSMOS 2251 DEB",
        "group": "cosmos-2251-debris",
        "lat": 71.48826821648008,
        "lon": -106.58831993305554,
        "alt_km": 705.146280487239,
        "timestamp": "2025-12-23T20:42:37.472645+00:00",
        "meta_object_name": "COSMOS 2251 DEB",
        "meta_object_id": "1993-036ARD",
        "meta_epoch": "2025-12-20T20:13:43.592160",
        "meta_mean_motion": 14.64913481,
        "meta_eccentricity": 0.00772857,
        "meta_inclination": 74.0358,
        "meta_ra_of_asc_node": 200.4631,
        "meta_arg_of_pericenter": 316.7662,
        "meta_mean_anomaly": 42.7455,
        "meta_ephemeris_type": 0,
        "meta_classification_type": "U",
        "meta_norad_cat_id": 35759,
        "meta_element_set_no": 999,
        "meta_rev_at_epoch": 66254,
        "meta_bstar": 0.00015891508,
        "meta_mean_motion_dot": 8.54e-06,
        "meta_mean_motion_ddot": 0,
        "tle_line1": "1 35759U 93036ARD 25354.84286565  .00000854  00000+0  15892-3 0  9997",
        "tle_line2": "2 35759  74.0358 200.4631 0077285 316.7662  42.7455 14.64913481662545"
      },
      "geometry": {
        "type": "Point",
        "coordinates": [
          -106.58831993305554,
          71.48826821648008
        ]
      }
    },
    {
      "type": "Feature",
      "properties": {
        "norad_id": 35771,
        "name": "COSMOS 2251 DEB",
        "group": "cosmos-2251-debris",
        "lat": -10.38408597550902,
        "lon": 113.75677202087681,
        "alt_km": 716.0636705686402,
        "timestamp": "2025-12-23T20:42:37.472656+00:00",
        "meta_object_name": "COSMOS 2251 DEB",
        "meta_object_id": "1993-036ARR",
        "meta_epoch": "2025-12-15T14:45:16.238592",
        "meta_mean_motion": 14.13430046,
        "meta_eccentricity": 0.02280549,
        "meta_inclination": 74.1561,
        "meta_ra_of_asc_node": 305.27,
        "meta_arg_of_pericenter": 242.9998,
        "meta_mean_anomaly": 114.7698,
        "meta_ephemeris_type": 0,
        "meta_classification_type": "U",
        "meta_norad_cat_id": 35771,
        "meta_element_set_no": 999,
        "meta_rev_at_epoch": 82901,
        "meta_bstar": 0.0026764238,
        "meta_mean_motion_dot": 6.427e-05,
        "meta_mean_motion_ddot": 0,
        "tle_line1": "1 35771U 93036ARR 25349.61477128  .00006427  00000+0  26764-2 0  9998",
        "tle_line2": "2 35771  74.1561 305.2700 0228054 242.9998 114.7698 14.13430046829012"
      },
      "geometry": {
        "type": "Point",
        "coordinates": [
          113.75677202087681,
          -10.38408597550902
        ]
      }
    }
  ]
}